{
  "type": "FeatureCollection",
  "features": [
    {
      "type": "Feature",
      "properties": {
        "norad_id": 33886,
        "name": "IRIDIUM 33 DEB",
        "group": "iridium-33-debris",
        "lat": 67.12679519577466,
        "lon": 76.02803542926395,
        "alt_km": 773.861580850964,
        "timestamp": "2025-12-12T07:43:20.900070+00:00",
        "meta_object_name": "IRIDIUM 33 DEB",
        "meta_object_id": "1997-051BF",
        "meta_epoch": "2025-12-11T15:19:17.904288",
        "meta_mean_motion": 14.36050091,
        "meta_eccentricity": 0.00122415,
        "meta_inclination": 86.383,
        "meta_ra_of_asc_node": 67.6923,
        "meta_arg_of_pericenter": 246.1584,
        "meta_mean_anomaly": 250.6638,
        "meta_ephemeris_type": 0,
        "meta_classification_type": "U",
        "meta_norad_cat_id": 33886,
        "meta_element_set_no": 999,
        "meta_rev_at_epoch": 88036,
        "meta_bstar": 0.00031663905,
        "meta_mean_motion_dot": 9.4e-06,
        "meta_mean_motion_ddot": 0,
        "tle_line1": "1 33886U 97051BF  25345.63840167  .00000940  00000+0  31664-3 0  9999",
        "tle_line2": "2 33886  86.3830  67.6923 0012241 246.1584 250.6638 14.36050091880365"
      },
      "geometry": {
        "type": "Point",
        "coordinates": [
          76.02803542926395,
          67.12679519577466
        ]
      }
    },
    {
      "type": "Feature",
      "properties": {
        "norad_id": 33887,
        "name": "IRIDIUM 33 DEB",
        "group": "iridium-33-debris",
        "lat": 1.8606331924419806,
        "lon": 3.6929973801618576,
        "alt_km": 772.5658756899702,
        "timestamp": "2025-12-12T07:43:20.900081+00:00",
        "meta_object_name": "IRIDIUM 33 DEB",
        "meta_object_id": "1997-051BG",
        "meta_epoch": "2025-12-11T01:55:48.688896",
        "meta_mean_motion": 14.37218579,
        "meta_eccentricity": 0.0004312,
        "meta_inclination": 86.3045,
        "meta_ra_of_asc_node": 4.1074,
        "meta_arg_of_pericenter": 234.0797,
        "meta_mean_anomaly": 189.2272,
        "meta_ephemeris_type": 0,
        "meta_classification_type": "U",
        "meta_norad_cat_id": 33887,
        "meta_element_set_no": 999,
        "meta_rev_at_epoch": 88141,
        "meta_bstar": 0.00021085031,
        "meta_mean_motion_dot": 6.47e-06,
        "meta_mean_motion_ddot": 0,
        "tle_line1": "1 33887U 97051BG  25345.08042464  .00000647  00000+0  21085-3 0  9993",
        "tle_line2": "2 33887  86.3045   4.1074 0004312 234.0797 189.2272 14.37218579881415"
      },
      "geometry": {
        "type": "Point",
        "coordinates": [
          3.6929973801618576,
          1.8606331924419806
        ]
      }
    },
    {
      "type": "Feature",
      "properties": {
        "norad_id": 33953,
        "name": "IRIDIUM 33 DEB",
        "group": "iridium-33-debris",
        "lat": -10.577985087979384,
        "lon": -125.36287240615388,
        "alt_km": 711.8761426580695,
        "timestamp": "2025-12-12T07:43:20.900092+00:00",
        "meta_object_name": "IRIDIUM 33 DEB",
        "meta_object_id": "1997-051BN",
        "meta_epoch": "2025-12-11T11:07:41.316960",
        "meta_mean_motion": 14.55307463,
        "meta_eccentricity": 0.00184119,
        "meta_inclination": 86.3843,
        "meta_ra_of_asc_node": 54.3329,
        "meta_arg_of_pericenter": 106.7147,
        "meta_mean_anomaly": 270.7615,
        "meta_ephemeris_type": 0,
        "meta_classification_type": "U",
        "meta_norad_cat_id": 33953,
        "meta_element_set_no": 999,
        "meta_rev_at_epoch": 88285,
        "meta_bstar": 0.0022887036,
        "meta_mean_motion_dot": 9.967e-05,
        "meta_mean_motion_ddot": 0,
        "tle_line1": "1 33953U 97051BN  25345.46367265  .00009967  00000+0  22887-2 0  9992",
        "tle_line2": "2 33953  86.3843  54.3329 0018411 106.7147 270.7615 14.55307463882851"
      },
      "geometry": {
        "type": "Point",
        "coordinates": [
          -125.36287240615388,
          -10.577985087979384
        ]
      }
    },
    {
      "type": "Feature",
      "properties": {
        "norad_id": 33960,
        "name": "IRIDIUM 33 DEB",
        "group": "iridium-33-debris",
        "lat": -50.39309912985164,
        "lon": -74.83099502968673,
        "alt_km": 622.1100016045557,
        "timestamp": "2025-12-12T07:43:20.900102+00:00",
        "meta_object_name": "IRIDIUM 33 DEB",
        "meta_object_id": "1997-051BV",
        "meta_epoch": "2025-12-11T20:52:13.312128",
        "meta_mean_motion": 14.85121731,
        "meta_eccentricity": 0.00074729,
        "meta_inclination": 86.253,
        "meta_ra_of_asc_node": 289.9247,
        "meta_arg_of_pericenter": 63.6989,
        "meta_mean_anomaly": 349.9861,
        "meta_ephemeris_type": 0,
        "meta_classification_type": "U",
        "meta_norad_cat_id": 33960,
        "meta_element_set_no": 999,
        "meta_rev_at_epoch": 88854,
        "meta_bstar": 0.004647626,
        "meta_mean_motion_dot": 0.00039972,
        "meta_mean_motion_ddot": 0,
        "tle_line1": "1 33960U 97051BV  25345.86959852  .00039972  00000+0  46476-2 0  9992",
        "tle_line2": "2 33960  86.2530 289.9247 0007472  63.6989 349.9861 14.85121731888545"
      },
      "geometry": {
        "type": "Point",
        "coordinates": [
          -74.83099502968673,
          -50.39309912985164
        ]
      }
    },
    {
      "type": "Feature",
      "properties": {
        "norad_id": 33966,
        "name": "IRIDIUM 33 DEB",
        "group": "iridium-33-debris",
        "lat": -35.06305898796154,
        "lon": 43.668633706372574,
        "alt_km": 737.0287254367631,
        "timestamp": "2025-12-12T07:43:20.900113+00:00",
        "meta_object_name": "IRIDIUM 33 DEB",
        "meta_object_id": "1997-051CB",
        "meta_epoch": "2025-12-11T22:30:38.278656",
        "meta_mean_motion": 14.49589351,
        "meta_eccentricity": 0.00073139,
        "meta_inclination": 86.3923,
        "meta_ra_of_asc_node": 46.3712,
        "meta_arg_of_pericenter": 190.8773,
        "meta_mean_anomaly": 292.2997,
        "meta_ephemeris_type": 0,
        "meta_classification_type": "U",
        "meta_norad_cat_id": 33966,
        "meta_element_set_no": 999,
        "meta_rev_at_epoch": 88430,
        "meta_bstar": 0.00087152369,
        "meta_mean_motion_dot": 3.365e-05,
        "meta_mean_motion_ddot": 0,
        "tle_line1": "1 33966U 97051CB  25345.93794304  .00003365  00000+0  87152-3 0  9999",
        "tle_line2": "2 33966  86.3923  46.3712 0007313 190.8773 292.2997 14.49589351884304"
      },
      "geometry": {
        "type": "Point",
        "coordinates": [
          43.668633706372574,
          -35.06305898796154
        ]
      }
    },
    {
      "type": "Feature",
      "properties": {
        "norad_id": 34071,
        "name": "IRIDIUM 33 DEB",
        "group": "iridium-33-debris",
        "lat": 31.199234705492593,
        "lon": 20.22782011825241,
        "alt_km": 724.2110276873527,
        "timestamp": "2025-12-12T07:43:20.900123+00:00",
        "meta_object_name": "IRIDIUM 33 DEB",
        "meta_object_id": "1997-051CE",
        "meta_epoch": "2025-12-12T00:57:04.495968",
        "meta_mean_motion": 14.49460167,
        "meta_eccentricity": 0.00099251,
        "meta_inclination": 86.346,
        "meta_ra_of_asc_node": 18.1325,
        "meta_arg_of_pericenter": 109.5806,
        "meta_mean_anomaly": 250.647,
        "meta_ephemeris_type": 0,
        "meta_classification_type": "U",
        "meta_norad_cat_id": 34071,
        "meta_element_set_no": 999,
        "meta_rev_at_epoch": 88324,
        "meta_bstar": 0.000958371,
        "meta_mean_motion_dot": 3.69e-05,
        "meta_mean_motion_ddot": 0,
        "tle_line1": "1 34071U 97051CE  25346.03963537  .00003690  00000+0  95837-3 0  9995",
        "tle_line2": "2 34071  86.3460  18.1325 0009925 109.5806 250.6470 14.49460167883249"
      },
      "geometry": {
        "type": "Point",
        "coordinates": [
          20.22782011825241,
          31.199234705492593
        ]
      }
    },
    {
      "type": "Feature",
      "properties": {
        "norad_id": 34077,
        "name": "IRIDIUM 33 DEB",
        "group": "iridium-33-debris",
        "lat": -30.8546129099606,
        "lon": -126.14471637030354,
        "alt_km": 690.9101813265097,
        "timestamp": "2025-12-12T07:43:20.900134+00:00",
        "meta_object_name": "IRIDIUM 33 DEB",
        "meta_object_id": "1997-051CL",
        "meta_epoch": "2025-12-11T06:28:42.934368",
        "meta_mean_motion": 14.64809818,
        "meta_eccentricity": 0.00103779,
        "meta_inclination": 86.386,
        "meta_ra_of_asc_node": 52.1546,
        "meta_arg_of_pericenter": 44.2381,
        "meta_mean_anomaly": 23.4753,
        "meta_ephemeris_type": 0,
        "meta_classification_type": "U",
        "meta_norad_cat_id": 34077,
        "meta_element_set_no": 999,
        "meta_rev_at_epoch": 88311,
        "meta_bstar": 0.0029385818,
        "meta_mean_motion_dot": 0.00015729,
        "meta_mean_motion_ddot": 0,
        "tle_line1": "1 34077U 97051CL  25345.26994137  .00015729  00000+0  29386-2 0  9996",
        "tle_line2": "2 34077  86.3860  52.1546 0010377  44.2381  23.4753 14.64809818883111"
      },
      "geometry": {
        "type": "Point",
        "coordinates": [
          -126.14471637030354,
          -30.8546129099606
        ]
      }
    }
  ]
}